[
  {
    "OBJECT_NAME": "STARLINK-6162",
    "OBJECT_ID": "23090AG",
    "EPOCH": "2025-11-11T01:33:27.028224",
    "MEAN_MOTION": 15.02537251,
    "ECCENTRICITY": 0.0001397,
    "INCLINATION": 43.005,
    "RA_OF_ASC_NODE": 186.6755,
    "ARG_OF_PERICENTER": 265.2564,
    "MEAN_ANOMALY": 94.8119,
    "EPHEMERIS_TYPE": 0,
    "CLASSIFICATION_TYPE": "U",
    "NORAD_CAT_ID": 57131,
    "ELEMENT_SET_NO": 999,
    "REV_AT_EPOCH": 13252,
    "BSTAR": 4.83e-05,
    "MEAN_MOTION_DOT": 4.49e-06,
    "MEAN_MOTION_DDOT": 0.0,
    "TLE_LINE1": "1 57131U 23090AG  25315.06489616  .00000449  00000+0  48300-4 0  9992",
    "TLE_LINE2": "2 57131  43.0050 186.6755 0001397 265.2564  94.8119 15.02537251132525",
    "COMMENT": "Grouped by shell and plane from TLE"
  },
  {
    "OBJECT_NAME": "STARLINK-6143",
    "OBJECT_ID": "23090AJ",
    "EPOCH": "2025-11-10T23:38:32.696160",
    "MEAN_MOTION": 15.02535712,
    "ECCENTRICITY": 0.0001419,
    "INCLINATION": 43.0037,
    "RA_OF_ASC_NODE": 186.9379,
    "ARG_OF_PERICENTER": 264.2565,
    "MEAN_ANOMALY": 95.8115,
    "EPHEMERIS_TYPE": 0,
    "CLASSIFICATION_TYPE": "U",
    "NORAD_CAT_ID": 57133,
    "ELEMENT_SET_NO": 999,
    "REV_AT_EPOCH": 13251,
    "BSTAR": 5.4631e-05,
    "MEAN_MOTION_DOT": 5.34e-06,
    "MEAN_MOTION_DDOT": 0.0,
    "TLE_LINE1": "1 57133U 23090AJ  25314.98510065  .00000534  00000+0  54631-4 0  9996",
    "TLE_LINE2": "2 57133  43.0037 186.9379 0001419 264.2565  95.8115 15.02535712132518",
    "COMMENT": "Grouped by shell and plane from TLE"
  },
  {
    "OBJECT_NAME": "STARLINK-6133",
    "OBJECT_ID": "23090AK",
    "EPOCH": "2025-11-11T01:35:03.988032",
    "MEAN_MOTION": 15.02541535,
    "ECCENTRICITY": 0.0001351,
    "INCLINATION": 43.0046,
    "RA_OF_ASC_NODE": 186.6828,
    "ARG_OF_PERICENTER": 268.1203,
    "MEAN_ANOMALY": 91.9485,
    "EPHEMERIS_TYPE": 0,
    "CLASSIFICATION_TYPE": "U",
    "NORAD_CAT_ID": 57134,
    "ELEMENT_SET_NO": 999,
    "REV_AT_EPOCH": 13252,
    "BSTAR": 0.0001577,
    "MEAN_MOTION_DOT": 1.928e-05,
    "MEAN_MOTION_DDOT": 0.0,
    "TLE_LINE1": "1 57134U 23090AK  25315.06601838  .00001928  00000+0  15770-3 0  9994",
    "TLE_LINE2": "2 57134  43.0046 186.6828 0001351 268.1203  91.9485 15.02541535132520",
    "COMMENT": "Grouped by shell and plane from TLE"
  },
  {
    "OBJECT_NAME": "STARLINK-6127",
    "OBJECT_ID": "23090AL",
    "EPOCH": "2025-11-11T00:59:53.496096",
    "MEAN_MOTION": 15.02533935,
    "ECCENTRICITY": 0.0001078,
    "INCLINATION": 43.0037,
    "RA_OF_ASC_NODE": 186.502,
    "ARG_OF_PERICENTER": 258.4002,
    "MEAN_ANOMALY": 101.6719,
    "EPHEMERIS_TYPE": 0,
    "CLASSIFICATION_TYPE": "U",
    "NORAD_CAT_ID": 57135,
    "ELEMENT_SET_NO": 999,
    "REV_AT_EPOCH": 13252,
    "BSTAR": 0.00018407000000000002,
    "MEAN_MOTION_DOT": 2.284e-05,
    "MEAN_MOTION_DDOT": 0.0,
    "TLE_LINE1": "1 57135U 23090AL  25315.04159139  .00002284  00000+0  18407-3 0  9991",
    "TLE_LINE2": "2 57135  43.0037 186.5020 0001078 258.4002 101.6719 15.02533935132523",
    "COMMENT": "Grouped by shell and plane from TLE"
  },
  {
    "OBJECT_NAME": "STARLINK-6112",
    "OBJECT_ID": "23090AM",
    "EPOCH": "2025-11-11T01:30:15.921792",
    "MEAN_MOTION": 15.02535559,
    "ECCENTRICITY": 0.0001065,
    "INCLINATION": 43.0011,
    "RA_OF_ASC_NODE": 186.6577,
    "ARG_OF_PERICENTER": 272.793,
    "MEAN_ANOMALY": 87.279,
    "EPHEMERIS_TYPE": 0,
    "CLASSIFICATION_TYPE": "U",
    "NORAD_CAT_ID": 57136,
    "ELEMENT_SET_NO": 999,
    "REV_AT_EPOCH": 13254,
    "BSTAR": 0.00010742,
    "MEAN_MOTION_DOT": 1.248e-05,
    "MEAN_MOTION_DDOT": 0.0,
    "TLE_LINE1": "1 57136U 23090AM  25315.06268428  .00001248  00000+0  10742-3 0  9999",
    "TLE_LINE2": "2 57136  43.0011 186.6577 0001065 272.7930  87.2790 15.02535559132543",
    "COMMENT": "Grouped by shell and plane from TLE"
  },
  {
    "OBJECT_NAME": "STARLINK-5347",
    "OBJECT_ID": "23090AN",
    "EPOCH": "2025-11-11T01:11:02.816160",
    "MEAN_MOTION": 15.02552366,
    "ECCENTRICITY": 0.0001335,
    "INCLINATION": 43.004,
    "RA_OF_ASC_NODE": 186.5563,
    "ARG_OF_PERICENTER": 259.6266,
    "MEAN_ANOMALY": 100.4426,
    "EPHEMERIS_TYPE": 0,
    "CLASSIFICATION_TYPE": "U",
    "NORAD_CAT_ID": 57137,
    "ELEMENT_SET_NO": 999,
    "REV_AT_EPOCH": 13252,
    "BSTAR": 0.00030234,
    "MEAN_MOTION_DOT": 3.884e-05,
    "MEAN_MOTION_DDOT": 0.0,
    "TLE_LINE1": "1 57137U 23090AN  25315.04933815  .00003884  00000+0  30234-3 0  9993",
    "TLE_LINE2": "2 57137  43.0040 186.5563 0001335 259.6266 100.4426 15.02552366132523",
    "COMMENT": "Grouped by shell and plane from TLE"
  },
  {
    "OBJECT_NAME": "STARLINK-5336",
    "OBJECT_ID": "23090AP",
    "EPOCH": "2025-11-10T23:52:55.758720",
    "MEAN_MOTION": 15.02542057,
    "ECCENTRICITY": 0.0001286,
    "INCLINATION": 43.0016,
    "RA_OF_ASC_NODE": 187.0078,
    "ARG_OF_PERICENTER": 256.7742,
    "MEAN_ANOMALY": 103.2957,
    "EPHEMERIS_TYPE": 0,
    "CLASSIFICATION_TYPE": "U",
    "NORAD_CAT_ID": 57138,
    "ELEMENT_SET_NO": 999,
    "REV_AT_EPOCH": 13251,
    "BSTAR": 8.7617e-05,
    "MEAN_MOTION_DOT": 9.8e-06,
    "MEAN_MOTION_DDOT": 0.0,
    "TLE_LINE1": "1 57138U 23090AP  25314.99508980  .00000980  00000+0  87617-4 0  9990",
    "TLE_LINE2": "2 57138  43.0016 187.0078 0001286 256.7742 103.2957 15.02542057132511",
    "COMMENT": "Grouped by shell and plane from TLE"
  },
  {
    "OBJECT_NAME": "STARLINK-5355",
    "OBJECT_ID": "23090AQ",
    "EPOCH": "2025-11-11T01:04:41.302272",
    "MEAN_MOTION": 15.02538472,
    "ECCENTRICITY": 0.0001043,
    "INCLINATION": 43.002,
    "RA_OF_ASC_NODE": 186.5207,
    "ARG_OF_PERICENTER": 267.8103,
    "MEAN_ANOMALY": 92.262,
    "EPHEMERIS_TYPE": 0,
    "CLASSIFICATION_TYPE": "U",
    "NORAD_CAT_ID": 57139,
    "ELEMENT_SET_NO": 999,
    "REV_AT_EPOCH": 13252,
    "BSTAR": 8.9003e-05,
    "MEAN_MOTION_DOT": 9.99e-06,
    "MEAN_MOTION_DDOT": 0.0,
    "TLE_LINE1": "1 57139U 23090AQ  25315.04492248  .00000999  00000+0  89003-4 0  9998",
    "TLE_LINE2": "2 57139  43.0020 186.5207 0001043 267.8103  92.2620 15.02538472132521",
    "COMMENT": "Grouped by shell and plane from TLE"
  },
  {
    "OBJECT_NAME": "STARLINK-5357",
    "OBJECT_ID": "23090AS",
    "EPOCH": "2025-11-11T00:56:42.558144",
    "MEAN_MOTION": 15.02540473,
    "ECCENTRICITY": 0.000121,
    "INCLINATION": 43.002,
    "RA_OF_ASC_NODE": 186.483,
    "ARG_OF_PERICENTER": 275.4946,
    "MEAN_ANOMALY": 84.5758,
    "EPHEMERIS_TYPE": 0,
    "CLASSIFICATION_TYPE": "U",
    "NORAD_CAT_ID": 57141,
    "ELEMENT_SET_NO": 999,
    "REV_AT_EPOCH": 13252,
    "BSTAR": 0.00014617,
    "MEAN_MOTION_DOT": 1.772e-05,
    "MEAN_MOTION_DDOT": 0.0,
    "TLE_LINE1": "1 57141U 23090AS  25315.03938146  .00001772  00000+0  14617-3 0  9990",
    "TLE_LINE2": "2 57141  43.0020 186.4830 0001210 275.4946  84.5758 15.02540473132521",
    "COMMENT": "Grouped by shell and plane from TLE"
  },
  {
    "OBJECT_NAME": "STARLINK-5361",
    "OBJECT_ID": "23090AT",
    "EPOCH": "2025-11-11T00:50:17.795616",
    "MEAN_MOTION": 15.02542599,
    "ECCENTRICITY": 0.0001105,
    "INCLINATION": 43.003,
    "RA_OF_ASC_NODE": 186.4448,
    "ARG_OF_PERICENTER": 272.7027,
    "MEAN_ANOMALY": 87.3689,
    "EPHEMERIS_TYPE": 0,
    "CLASSIFICATION_TYPE": "U",
    "NORAD_CAT_ID": 57142,
    "ELEMENT_SET_NO": 999,
    "REV_AT_EPOCH": 13252,
    "BSTAR": 0.00010195,
    "MEAN_MOTION_DOT": 1.174e-05,
    "MEAN_MOTION_DDOT": 0.0,
    "TLE_LINE1": "1 57142U 23090AT  25315.03492819  .00001174  00000+0  10195-3 0  9996",
    "TLE_LINE2": "2 57142  43.0030 186.4448 0001105 272.7027  87.3689 15.02542599132526",
    "COMMENT": "Grouped by shell and plane from TLE"
  },
  {
    "OBJECT_NAME": "STARLINK-5358",
    "OBJECT_ID": "23090AU",
    "EPOCH": "2025-11-11T00:45:33.292512",
    "MEAN_MOTION": 15.02510348,
    "ECCENTRICITY": 8.63e-05,
    "INCLINATION": 43.0023,
    "RA_OF_ASC_NODE": 186.426,
    "ARG_OF_PERICENTER": 272.0279,
    "MEAN_ANOMALY": 88.0464,
    "EPHEMERIS_TYPE": 0,
    "CLASSIFICATION_TYPE": "U",
    "NORAD_CAT_ID": 57143,
    "ELEMENT_SET_NO": 999,
    "REV_AT_EPOCH": 13252,
    "BSTAR": 0.0,
    "MEAN_MOTION_DOT": -2.098e-05,
    "MEAN_MOTION_DDOT": 0.0,
    "TLE_LINE1": "1 57143U 23090AU  25315.03163533 -.00002098  00000+0 -14042-3 0  9998",
    "TLE_LINE2": "2 57143  43.0023 186.4260 0000863 272.0279  88.0464 15.02510348132529",
    "COMMENT": "Grouped by shell and plane from TLE"
  },
  {
    "OBJECT_NAME": "STARLINK-5150",
    "OBJECT_ID": "23090AV",
    "EPOCH": "2025-11-11T01:01:30.142272",
    "MEAN_MOTION": 15.02537948,
    "ECCENTRICITY": 0.0001247,
    "INCLINATION": 43.0036,
    "RA_OF_ASC_NODE": 186.507,
    "ARG_OF_PERICENTER": 269.6725,
    "MEAN_ANOMALY": 90.3974,
    "EPHEMERIS_TYPE": 0,
    "CLASSIFICATION_TYPE": "U",
    "NORAD_CAT_ID": 57144,
    "ELEMENT_SET_NO": 999,
    "REV_AT_EPOCH": 13252,
    "BSTAR": 0.00017010000000000001,
    "MEAN_MOTION_DOT": 2.095e-05,
    "MEAN_MOTION_DDOT": 0.0,
    "TLE_LINE1": "1 57144U 23090AV  25315.04270998  .00002095  00000+0  17010-3 0  9997",
    "TLE_LINE2": "2 57144  43.0036 186.5070 0001247 269.6725  90.3974 15.02537948132526",
    "COMMENT": "Grouped by shell and plane from TLE"
  },
  {
    "OBJECT_NAME": "STARLINK-5768",
    "OBJECT_ID": "23090AW",
    "EPOCH": "2025-11-11T00:32:43.300032",
    "MEAN_MOTION": 15.02533405,
    "ECCENTRICITY": 0.0001582,
    "INCLINATION": 43.0041,
    "RA_OF_ASC_NODE": 186.3532,
    "ARG_OF_PERICENTER": 263.774,
    "MEAN_ANOMALY": 96.2922,
    "EPHEMERIS_TYPE": 0,
    "CLASSIFICATION_TYPE": "U",
    "NORAD_CAT_ID": 57145,
    "ELEMENT_SET_NO": 999,
    "REV_AT_EPOCH": 13252,
    "BSTAR": 2.6389e-05,
    "MEAN_MOTION_DOT": 1.53e-06,
    "MEAN_MOTION_DDOT": 0.0,
    "TLE_LINE1": "1 57145U 23090AW  25315.02272338  .00000153  00000+0  26389-4 0  9999",
    "TLE_LINE2": "2 57145  43.0041 186.3532 0001582 263.7740  96.2922 15.02533405132520",
    "COMMENT": "Grouped by shell and plane from TLE"
  }
]